#dP2023 12 10  0  0  0.00000000      96 __u+U IGS20 EXT  IAC
## 2292      0.00000000   900.00000000 60288 0.0000000000000
+  117   C06C07C08C09C10C11C12C13C14C16C19C20C21C22C23C24C25
+        C26C27C28C29C30C32C33C34C35C36C37C38C39C40C41C42C43
+        C44C45C46E02E03E04E05E07E08E09E10E11E12E13E15E18E19
+        E21E24E25E26E27E30E31E33E34E36G01G02G03G04G05G06G07
+        G09G10G11G12G13G14G15G16G17G18G19G20G21G22G23G24G25
+        G26G27G28G29G30G31G32J02J03J04R01R02R03R04R05R07R08
+        R09R11R12R13R14R15R16R17R18R19R20R21R22R24R25  0  0
++         8 15 10  8 14 11  8 10  8  9  7  7  8  8  9  7  9
++         7  8  9  9  8  8  8  7  8  8  8  9 10  8  7  8  8
++         9  7  8  8  8  9  7  8  7  8  8  7  7  7  7  8  8
++         8  8  7  7  7  7  6  8  7  7  8  7  8  8  7  7  7
++         8  7  7  7  7  7  6  7  7  7  7  8  6  7  9  7  6
++         6  8  7  7  7  7  8  9  9 11  8  9  7  8  7  8  8
++         8  9  8  8  8  7  8  7  7  7  7  8  9  7 10  0  0
%c M  cc GPS ccc cccc cccc cccc cccc ccccc ccccc ccccc ccccc
%c cc cc ccc ccc cccc cccc cccc cccc ccccc ccccc ccccc ccccc
%f  0.0000000  0.000000000  0.00000000000  0.000000000000000
%f  0.0000000  0.000000000  0.00000000000  0.000000000000000
%i    0    0    0    0      0      0      0      0         0
%i    0    0    0    0      0      0      0      0         0
/* IAC                                ULTRA-RAPID PREDICTION
/* S/V CLOCKS ARE ALIGNED TO GNSS TIME                      
/* G:C1WC2W R:C1PC2P E:C1XC5X C:C2IC6I J:C1CC2S             
/* PCV:IGS20_2290 OL/AL:FES2004  NONE     YN ORB:CoN CLK:CoN
*  2023 12 10 23  0  0.00000000
PC06 -12885.153096  40301.768452    804.069842    201.881861
PC07  -3038.081472  29980.143614 -29361.996107   -454.586682
PC08 -16057.798906  22563.004663  31725.870076    188.541035
PC09  -7112.405252  40657.441799  -9616.052760   -200.962518
PC10   5433.544730  32459.622917 -25728.067406    -48.685436
PC11   6522.321829 -25646.784903   8959.206116    299.955949
PC12  14536.949801  -9960.920344  21686.048591    830.056446
PC13  -9113.858305  23952.365893  33574.349325    394.092591
PC14   4808.776324 -15165.888703 -22919.962096   -274.144957
PC16 -14238.377702  39769.001193   3201.860507   -219.599047
PC19   5434.097126  18606.267095  20089.951654   -954.391279
PC20 -12787.056378  10325.561950  22562.518968     40.384012
PC21  24892.950713   5012.216261 -11546.459736   -968.091418
PC22  21579.495858  16675.887020   5867.169627   -191.550697
PC23 -12364.949995 -11370.672840  22279.059780   -805.999614
PC24  22073.962558 -16593.065459   4115.036299    680.263431
PC25   5626.676977 -19668.481172  18976.292355    275.227736
PC26  24592.653280  -4994.748786 -12266.646201   -218.400542
PC27 -15995.473100     55.862965 -22881.201056    240.414589
PC28 -12151.040634 -18233.091558 -17273.528651    181.836097
PC29    959.341449  27888.294004   -360.840399    212.859774
PC30 -11082.913374  19213.503431 -16949.461195    -10.110269
PC32 -24976.811226  -4887.523611  11463.694925   -541.570722
PC33  -5457.767147 -18569.645759 -20106.544074   -942.030300
PC34  10381.085422 -20418.828485  15917.672227    322.162382
PC35  12902.453065  17751.757417  17251.535808    483.594233
PC36  -6891.554724  19661.738780 -18544.094646    -98.259252
PC37 -24490.110673   3904.372862  12770.742866   -919.414425
PC38 -22963.766563  24247.520951  25684.061325    123.245196
PC39 -14373.402057  38965.853360   7933.700611     -6.027090
PC40  -6462.532258  25139.229862 -33156.603598    -47.343257
PC41 -21226.594364 -16874.712699  -6548.723889   -873.062865
PC42  14188.103714  -9307.340214 -22111.291232   -483.227141
PC43   -314.717148 -27865.758893   1229.802841     51.800055
PC44  16125.815704   -406.573440  22762.101674    318.993408
PC45  12788.871937  10923.691650 -22280.437404    -53.822813
PC46 -21478.407521  17003.703310  -5204.802798   -106.499448
PE02  25525.434106   9296.147666 -11790.900244     85.572824
PE03  19714.094672  17833.242690 -13022.853651    -79.266111
PE04 -17629.375873   2127.907743  23681.510723   -277.181618
PE05  10332.252906  27266.571586   5104.197167   4699.261961
PE07   5508.520459 -20517.370869 -20615.055204    -92.368522
PE08  17748.496372  -1429.415305 -23651.035950   -190.236485
PE09  -5490.978754  20359.474204  20764.760854   -258.421620
PE10 -19609.653702  20210.281713  -9105.596305   -585.391673
PE11 -15091.626344  25435.800120   1317.589844   3259.770543
PE12 -20844.314805  12433.346180 -16948.549850   -813.406282
PE13  15471.219642 -25226.713291   -585.730823    -19.666817
PE15  20759.790926 -11976.757596  17381.933667    -74.042356
PE18   -681.803581 -26419.185946  11846.263328     80.204639
PE19 -18978.658543 -19839.618770  11052.733051  -1040.916211
PE21  -8413.633171 -16343.030023  23196.454227   -568.250530
PE24 -14878.072010  14096.113883 -21363.153629   -478.913942
PE25   8002.660728  16400.542938 -23306.007511     -2.155993
PE26    582.652183 -23252.150888 -18299.463549    305.982238
PE27  14392.141463 -14253.380431  21589.510016   -221.038353
PE30  28563.143574  -3498.865604   6967.998446   -731.664643
PE31 -28433.436131   3789.775925  -7278.668976    -11.493043
PE33 -13438.018123  -8675.271234 -24896.840749      3.961099
PE34  13841.248224   8047.815769  24898.739455    -82.663514
PE36  -1211.705103  23521.335375  17941.172360   -155.940795
PG01  14006.440873 -22343.854847   -896.083781    163.806382
PG02  16060.686695 -19850.826045   7398.929027   -517.315477
PG03  14551.380399 -11978.523200 -18811.646473     45.485605
PG04   5110.696810 -18537.673411 -18254.241235    236.119829
PG05 -24228.915509   6285.628754   8845.170750   -153.642274
PG06 -13081.046101  -6523.723857 -22109.633920    481.776151
PG07   1402.379321 -22078.713303  14819.204690     -8.674351
PG09  -5194.002873 -23987.343507 -10167.448358     22.912397
PG10  18964.772215  11014.301746  15411.652622    -64.779162
PG11 -18622.358474   4474.135639 -18355.879760   -495.690564
PG12 -15959.241140  11089.381308 -18352.834076   -456.108707
PG13 -15577.260129   -119.840441  21337.982475    604.319268
PG14 -15416.510587 -13353.765939  17129.052190    267.333194
PG15  -9989.783628  12360.277291  20769.667100    105.667871
PG16  26515.912936    864.892014   3538.887796   -406.532581
PG17 -12729.614727 -22946.116658  -3148.778823    722.189445
PG18  -1145.566996  21269.140686  15762.422419   -502.873574
PG19 -16069.538645 -17610.665160 -12259.383500    410.731137
PG20 -26122.530302    561.679142  -4142.267922    397.290071
PG21  17069.862393 -16867.445835  10767.133249    141.905618
PG22 -20744.716777 -11301.179321  12285.382241     68.329025
PG23   6296.850836  14497.614487  21392.219773    113.819474
PG24 -15278.461169  20512.100569   5886.510778   -390.609039
PG25  -2637.331784  15441.275427 -21761.118093    480.972299
PG26  25777.086792   3711.412597  -6270.406263    210.247581
PG27  17393.831906   3716.146605  19596.469583    -81.357398
PG28  12276.420762   9104.505733 -21744.944158    -66.846287
PG29   2532.785617  24131.976166 -10727.878962   -609.858553
PG30  -7480.022943 -15806.481623  20043.662863   -458.878287
PG31  17215.488527    355.748810 -20529.501301   -226.497213
PG32  16090.004505  20182.487938  -6524.244454   -595.035990
PJ02 -31714.358952  15164.858635 -18632.588854     -0.503666
PJ03 -22757.787940  33205.870674  -8080.473619    -11.456738
PJ04 -26479.574039  26266.726470  25615.683558     73.935028
PR01  14510.810289  -1288.369714 -20939.872094     71.848155
PR02   -373.385785 -13506.966635 -21577.850729    -22.320806
PR03 -14914.617446 -18251.195106  -9625.705235     90.679030
PR04 -20676.776707 -13024.823836   7302.393158    214.691599
PR05 -15405.937854   -730.879857  20314.813146    123.617447
PR07  15441.910435  18295.343256   8923.226992     71.063951
PR08  20801.787458  12811.483784  -7352.304086    -73.611339
PR09 -12389.383136  14222.101717 -17198.758528    158.025102
PR11  19357.731380    953.457655 -16569.097483   -220.136992
PR12  23590.383746  -9630.307106   1400.721234     34.354630
PR13  14583.949973 -13805.211167  15713.734367    -42.174770
PR14  -5296.240281  -9884.620760  22917.966213     25.752468
PR15 -20261.007241   -341.121221  15508.859052     84.080900
PR16 -23619.072525   9619.343075  -1055.667134     21.432904
PR17  -2273.785750 -21727.688477 -13188.183859     42.414079
PR18  -8941.673625  -7634.473401 -22607.184690    116.251826
PR19 -11492.865733   8371.944777 -21168.088196   -257.819746
PR20  -7501.448373  23909.320131  -4860.401900   -104.923039
PR21   2374.688096  21350.677067  13739.637201    -59.992978
PR22   9444.710536   6963.868025  22681.559683     97.679920
PR24   6431.279508 -24320.645923   4301.126785    -35.430973
PR25  20852.859496  13028.030535  -6740.164838    -12.826481
EOF
